[{"OBJECT_NAME":"STARLINK-32397","OBJECT_ID":"2024-187V","EPOCH":"2026-03-09T09:07:54.107904","MEAN_MOTION":15.3018745,"ECCENTRICITY":0.00013042,"INCLINATION":53.1607,"RA_OF_ASC_NODE":64.5183,"ARG_OF_PERICENTER":93.2929,"MEAN_ANOMALY":266.8221,"EPHEMERIS_TYPE":0,"CLASSIFICATION_TYPE":"U","NORAD_CAT_ID":61593,"ELEMENT_SET_NO":999,"REV_AT_EPOCH":7906,"BSTAR":-6.64363e-7,"MEAN_MOTION_DOT":-3.79e-6,"MEAN_MOTION_DDOT":0},{"OBJECT_NAME":"CZ-6A DEB","OBJECT_ID":"2022-151EM","EPOCH":"2026-03-09T21:12:10.844640","MEAN_MOTION":15.1479521,"ECCENTRICITY":0.00732342,"INCLINATION":98.809,"RA_OF_ASC_NODE":212.6624,"ARG_OF_PERICENTER":10.5605,"MEAN_ANOMALY":349.714,"EPHEMERIS_TYPE":0,"CLASSIFICATION_TYPE":"U","NORAD_CAT_ID":54413,"ELEMENT_SET_NO":999,"REV_AT_EPOCH":17915,"BSTAR":0.0020661814,"MEAN_MOTION_DOT":0.00041137,"MEAN_MOTION_DDOT":0}]
